COSMOS 2534 [GLONASS-M] 
1 44299U 19030A   26180.66029704  .00000085  00000+0  00000+0 0  9993
2 44299  64.3700 192.1964 0013517 275.0224  73.0621  2.13102425 55189
BEIDOU-3 IGSO-2         
1 44337U 19035A   26184.86303293 -.00000094  00000+0  00000+0 0  9996
2 44337  55.2500 158.7161 0039663 216.4194 336.5395  1.00261697 25837
NAVSTAR 78 (USA 293)    
1 44506U 19056A   26184.83930113 -.00000073  00000+0  00000+0 0  9998
2 44506  55.6284 330.4819 0062878 197.8968 333.5224  2.00570148 50406
BEIDOU-3 M24            
1 44542U 19061A   26184.88799988  .00000088  00000+0  00000+0 0  9997
2 44542  54.3971 182.1643 0008565 358.8529   1.1460  1.86229350 46108
BEIDOU-3 M23            
1 44543U 19061B   26184.46290774  .00000084  00000+0  00000+0 0  9997
2 44543  54.3962 182.1475 0005841 339.4120   7.0782  1.86227531 46097
EUTELSAT 5 WEST B       
1 44624U 19067A   26185.22121734 -.00000030  00000+0  00000+0 0  9999
2 44624   0.0686 333.9509 0003346 129.3441 253.5777  1.00271486 24601
BEIDOU-3 M22            
1 44793U 19078A   26183.11722617 -.00000061  00000+0  00000+0 0  9995
2 44793  53.9213 299.3025 0005958  49.9871 310.0853  1.86227671 44926
BEIDOU-3 M21            
1 44794U 19078B   26178.96140830 -.00000087  00000+0  00000+0 0  9992
2 44794  53.8982 299.4091 0003978  49.1157 310.9195  1.86227959 44851
COSMOS 2544 [GLONASS-M] 
1 44850U 19088A   26183.51498774 -.00000008  00000+0  00000+0 0  9999
2 44850  65.5733  73.2191 0012628 256.5667 103.3590  2.13103168 51047
BEIDOU-3 M19            
1 44864U 19090A   26183.73706046 -.00000037  00000+0  00000+0 0  9997
2 44864  56.5715  62.2771 0017139 297.4185 221.8650  1.86231685 44528
BEIDOU-3 M20            
1 44865U 19090B   26183.66573100 -.00000037  00000+0  00000+0 0  9993
2 44865  56.5739  62.3139 0015125 311.8646 249.1839  1.86231813 44503
BEIDOU-3 G2             
1 45344U 20017A   26185.16682381 -.00000130  00000+0  00000+0 0  9990
2 45344   2.8967  47.5846 0002558  47.1404 327.6044  1.00271349 23433
COSMOS 2545 [GLONASS-M] 
1 45358U 20018A   26184.64845456 -.00000045  00000+0  00000+0 0  9997
2 45358  64.3444 311.8404 0009028 230.0373 129.8930  2.13102788 49018
BEIDOU-3 G3             
1 45807U 20040A   26185.24409744 -.00000343  00000+0  00000+0 0  9995
2 45807   2.4868  67.4781 0002381 333.8363  79.3801  1.00270679 22240
NAVSTAR 79 (USA 304)    
1 45854U 20041A   26180.70415300 -.00000068  00000+0  00000+0 0  9993
2 45854  56.6684  28.4552 0065570 209.6857 153.6636  2.00558738 44296
GALAXY 30 (G-30)        
1 46114U 20056C   26185.19743795  .00000000  00000+0  00000+0 0  9994
2 46114   0.0217  36.3001 0002019  70.3779 121.6188  1.00271608 21461
COSMOS 2547 [GLONASS-K] 
1 46805U 20075A   26181.55327406  .00000081  00000+0  00000+0 0  9994
2 46805  64.6009 192.0293 0009399 239.7356 120.2111  2.13100012 44197
NAVSTAR 80 (USA 309)    
1 46826U 20078A   26182.27330976  .00000067  00000+0  00000+0 0  9990
2 46826  53.9787 210.2073 0074038 207.5025 185.7090  2.00565158 41798
NAVSTAR 81 (USA 319)    
1 48859U 21054A   26183.02363622 -.00000082  00000+0  00000+0 0  9999
2 48859  55.1671 331.8638 0025946 228.3850 172.9360  2.00568335 37052
QZS-1R (MICHIBIKI-1R)   
1 49336U 21096A   26183.60705222 -.00000270  00000+0  00000+0 0  9995
2 49336  37.4911  79.3558 0755908 272.0505 280.6356  1.00250822 17169
GSAT0223 (GALILEO 27)   
1 49809U 21116A   26184.42092905 -.00000075  00000+0  00000+0 0  9994
2 49809  57.1558 341.2375 0001787 186.7549 176.0990  1.70476367 28464
GSAT0224 (GALILEO 28)   
1 49810U 21116B   26184.81984321 -.00000074  00000+0  00000+0 0  9990
2 49810  57.1559 341.2257 0001572 171.0762 189.2294  1.70476408 28494
COSMOS 2557 [GLONASS-K] 
1 52984U 22075A   26180.30969183 -.00000070  00000+0  00000+0 0  9996
2 52984  64.2907 314.0587 0010591 272.5686  87.3025  2.13102382 30974
COSMOS 2559 [GLONASS-K] 
1 54031U 22130A   26183.88345399 -.00000049  00000+0  00000+0 0  9992
2 54031  64.2611 314.0154 0012879 179.7670 180.2387  2.13101779 29020
COSMOS 2564 [GLONASS-M] 
1 54377U 22161A   26184.66515580  .00000089  00000+0  00000+0 0  9990
2 54377  64.7432 192.1647 0012270 225.1097 134.8193  2.13102052 27983
NAVSTAR 82 (USA 343)    
1 55268U 23009A   26182.76388889  .00000040  00000+0  00000+0 0  9998
2 55268  55.1238 147.9465 0006262 318.3854 293.8670  2.00571084 25533
BEIDOU-3 G4             
1 56564U 23066A   26185.24996862 -.00000270  00000+0  00000+0 0  9999
2 56564   0.4698 335.7223 0005044 177.6675 358.8620  1.00268025 11561
NVS-01 (IRNSS-1J)       
1 56759U 23076A   26185.24788861 -.00000323  00000+0  00000+0 0  9993
2 56759   2.1283 243.5850 0003036   8.1458 249.3451  1.00270928 11284
COSMOS 2569 [GLONASS-K2]
1 57517U 23114A   26181.39268046 -.00000020  00000+0  00000+0 0  9993
2 57517  65.3095  72.1752 0010196 296.5286  63.4269  2.13103831 22549
BEIDOU-3 M28            
1 58654U 23207A   26184.40806178 -.00000038  00000+0  00000+0 0  9997
2 58654  55.7669  61.7560 0002747 357.7806   2.2873  1.86229803 17143
BEIDOU-3 M26            
1 58655U 23207B   26184.20555660 -.00000038  00000+0  00000+0 0  9993
2 58655  55.7690  61.7493 0002437 322.8405  37.2117  1.86229811 17123
